OBJECT_NAME,OBJECT_ID,EPOCH,MEAN_MOTION,ECCENTRICITY,INCLINATION,RA_OF_ASC_NODE,ARG_OF_PERICENTER,MEAN_ANOMALY,EPHEMERIS_TYPE,CLASSIFICATION_TYPE,NORAD_CAT_ID,ELEMENT_SET_NO,REV_AT_EPOCH,BSTAR,MEAN_MOTION_DOT,MEAN_MOTION_DDOT,SEMIMAJOR_AXIS,SATELLITE_TYPE
IRIDIUM 168,2019-002C,2024-12-31T20:46:26.521536,14.34213179,0.0002082,86.3981,216.0814,84.6077,275.5356,0,U,43924,999,31267,0.0002626,7.55e-06,0.0,7155.81935858481,Iridium Next
KUZGTU 1 (RS47S),2023-091AV,2025-01-01T03:28:33.690432,15.15249977,0.001575,97.5851,58.4138,152.5417,207.665,0,U,57217,999,8341,0.0013017,0.00024546,0.0,6898.356755588705,Amateur Radio
HORYU-4,2016-012D,2024-12-31T15:57:39.132864,15.26864332,0.0007399,30.9996,119.4552,187.7533,172.2996,0,U,41340,999,48824,0.0013485,0.00036887,0.0,6863.329900486865,CubeSat
UKUBE-1,2014-037F,2024-12-31T06:38:43.953504,15.00452365,0.0003271,98.3678,309.3963,94.0291,266.1305,0,U,40074,999,56826,0.0015977,0.00020086,0.0,6943.63738979986,CubeSat
ZACUBE-1 (TSHEPISOSAT),2013-066B,2024-12-31T20:33:39.576384,14.93714349,0.0045169,97.7607,319.2531,223.8959,135.8669,0,U,39417,999,60104,0.0011367,0.00012228,0.0,6964.503153209536,CubeSat
PROPCUBE 3,2015-058K,2024-12-31T19:33:57.391776,14.8802174,0.0179738,64.7709,109.3389,247.7802,110.4157,0,U,40973,999,3539,0.0013049,0.00016103,0.0,6982.254218977259,CubeSat
POLYITAN-1,2014-033AJ,2024-12-31T16:32:37.009536,15.11381807,0.0010602,98.0912,340.5614,175.4266,184.7061,0,U,40042,999,57257,0.0017699,0.00029943,0.0,6910.121992372702,CubeSat
TUSUR GO (RS78S),2024-199AZ,2024-12-31T21:20:28.116384,15.25775977,0.001968,97.3773,230.8387,44.1552,316.1253,0,U,61782,999,5252,0.001526,0.00039282,0.0,6866.593311701805,Amateur Radio
MONITOR-3 (RS58S),2023-091Q,2025-01-01T02:52:25.258656,15.14571772,0.001616,97.5868,58.2741,152.8948,207.3131,0,U,57180,999,8339,0.0012386,0.00022908,0.0,6900.415929910118,Amateur Radio
ROBUSTA-1F (MTCUBE 2),2022-080E,2024-12-30T08:26:30.346368,6.42584036,0.000838,70.1231,123.9128,45.3679,314.7663,0,U,53109,999,5776,0.0,-3e-08,0.0,12221.238513364082,CubeSat
CANX-2,2008-021H,2024-12-30T15:50:39.171840,14.99077033,0.0013596,97.7953,328.7501,48.4298,311.8088,0,U,32790,999,90476,0.0010983,0.00013317,0.0,6947.883712407913,CubeSat
BRITE-CA1 (TORONTO),2014-033L,2024-12-31T19:37:01.815168,14.70809683,0.0081266,97.9021,137.5091,179.8689,180.2553,0,U,40020,999,56390,0.00080422,5.121e-05,0.0,7036.621448168622,CubeSat
IRIDIUM 171,2019-002H,2024-12-31T19:51:38.900448,14.34217626,0.0002009,86.3987,216.2614,98.8541,261.2882,0,U,43929,999,31265,-1.1782e-06,1.6e-07,0.0,7155.804566805861,Iridium Next
SWISSCUBE,2009-051B,2024-12-31T15:26:40.078752,14.60509912,0.0008256,98.4477,253.7997,69.3645,290.8439,0,U,35932,999,81136,0.0009843,4.731e-05,0.0,7069.665008161548,CubeSat
M2 PATHFINDER,2020-037E,2024-12-31T10:33:44.747136,15.00051406,0.0011662,97.7772,182.3437,161.3691,198.7961,0,U,45727,999,24548,0.00073378,9.096e-05,0.0,6944.874676236384,CubeSat
RUZAEVKA 390 (RS44S),2024-199AH,2024-12-31T21:06:45.419040,15.28118602,0.0014958,97.3795,231.0175,30.8827,329.3289,0,U,61766,999,5253,0.0017102,0.00047205,0.0,6859.573801607195,Amateur Radio
NETSAT-1,2020-068W,2024-12-31T08:31:32.784384,15.1920245,0.0009476,97.8304,328.2272,68.461,291.7633,0,U,46506,999,23399,0.0008692,0.00018274,0.0,6886.386700638909,CubeSat
SNAP-3 ALICE,2015-058G,2024-12-31T10:15:12.405024,15.09143321,0.0128072,64.7677,62.04,243.1674,115.6305,0,U,40970,999,3540,0.0023826,0.00046161,0.0,6916.953413301826,CubeSat
SITRO-AIS 33,2024-039E,2025-01-01T03:15:50.609088,15.50123368,0.000803,97.4107,330.4963,208.0044,152.0777,0,U,59055,999,4700,0.0020068,0.00114464,0.0,6794.502547465874,CubeSat
IRIDIUM 170,2019-002J,2024-12-31T20:12:38.056896,14.72255648,0.0002366,86.6098,216.0406,79.8137,280.3347,0,U,43930,999,32093,0.00052577,3.341e-05,0.0,7032.013383178472,Iridium Next
POLYTECH-UNIVERSE 3 (RS46S),2023-091AB,2025-01-01T02:37:14.232864,15.11675032,0.001835,97.5838,57.4419,166.4385,193.7342,0,U,57191,999,8335,0.00082314,0.00014013,0.0,6909.228376134862,Amateur Radio
